OBJECT_NAME,OBJECT_ID,EPOCH,MEAN_MOTION,ECCENTRICITY,INCLINATION,RA_OF_ASC_NODE,ARG_OF_PERICENTER,MEAN_ANOMALY,EPHEMERIS_TYPE,CLASSIFICATION_TYPE,NORAD_CAT_ID,ELEMENT_SET_NO,REV_AT_EPOCH,BSTAR,MEAN_MOTION_DOT,MEAN_MOTION_DDOT
SUOMI NPP,2011-061A,2026-05-17T14:36:18.277632,14.19510374,.0002777,98.7944,78.6959,66.4579,293.6889,0,U,37849,999,75410,.35800555E-4,.31E-6,0
YAOGAN-12,2011-066B,2026-05-17T14:02:49.931232,15.26181679,.00090898,97.1167,177.5973,345.3862,14.7113,0,U,37875,999,80737,.22110597E-3,.5654E-4,0
BEIDOU-2 M4,2012-018B,2026-05-17T12:20:37.392288,1.86229518,.00109291,55.6853,305.1252,280.3706,79.4822,0,U,38251,999,9537,0,-.55E-6,0
ARIRANG-3 (KOMPSAT-3),2012-025B,2026-05-17T13:56:18.989376,14.62176708,.00047473,98.1160,95.5734,196.7079,163.3967,0,U,38338,999,74687,.54042393E-4,.226E-5,0
METOP-B,2012-049A,2026-05-17T13:39:47.597760,14.21423541,.00034876,98.6524,189.6761,83.5795,276.5779,0,U,38771,999,70891,.47506088E-4,.61E-6,0
SJ-9A,2012-056A,2026-05-17T13:58:36.215904,14.85403455,.00256213,97.6693,110.6467,1.8636,358.2670,0,U,38860,999,69504,.10222503E-3,.832E-5,0
COSMOS 2484 (RODNIK-S 6),2013-001C,2026-05-17T15:20:07.949760,12.42937830,.00275517,82.5031,240.8821,100.9859,259.4322,0,U,39059,999,60476,-.25423453E-3,-.25E-6,0
SARAL,2013-009A,2026-05-17T14:16:17.868000,14.32847891,.00024197,98.5559,324.5494,43.9033,316.2343,0,U,39086,999,69122,.3072161E-4,.4E-6,0
STRAND-1,2013-009E,2026-05-17T11:48:16.189920,14.37143622,.00079301,98.3916,318.4832,330.2368,29.8367,0,U,39090,999,69265,.67566405E-4,.158E-5,0
BRITE-AUSTRIA,2013-009F,2026-05-17T11:47:49.517376,14.36528845,.00096512,98.3987,317.6884,338.5598,21.5183,0,U,39091,999,69264,.47160573E-4,.96E-6,0
GAOFEN-1,2013-018A,2026-05-17T15:15:03.228192,14.76541165,.00172689,97.9107,210.3217,9.6472,350.5067,0,U,39150,999,70373,.13826909E-3,.915E-5,0
NEE-01 PEGASO,2013-018B,2026-05-17T07:32:20.976288,14.93494058,.00113175,98.1183,280.4553,265.0166,94.9761,0,U,39151,999,70609,.11551929E-3,.1155E-4,0
PROBA-V,2013-021A,2026-05-17T11:23:53.143296,14.23590026,.0003421,98.3573,117.6010,208.0115,152.0881,0,U,39159,999,67674,.30597336E-4,.29E-6,0
ARIRANG-5 (KOMPSAT-5),2013-042A,2026-05-17T13:43:58.721088,15.04493933,.00020614,97.6208,324.7032,211.5691,148.5412,0,U,39227,999,69925,.56276321E-4,.727E-5,0
GONETS-M 5,2013-048A,2026-05-17T14:33:31.979232,12.42891525,.00157207,82.4854,2.4508,281.7295,78.2021,0,U,39249,999,57508,.11833733E-2,.174E-5,0
GONETS-M 7,2013-048C,2026-05-17T15:36:54.652320,12.42914117,.00165478,82.4924,5.3293,282.9220,77.0012,0,U,39251,999,57504,.72578625E-3,.11E-5,0
FENGYUN 3C,2013-052A,2026-05-17T15:41:54.506112,14.15747405,.0015791,98.4965,112.9346,109.6318,250.6563,0,U,39260,999,65424,.32953496E-4,.24E-6,0
CASSIOPE,2013-055A,2026-05-17T13:30:34.905600,15.22792227,.03006038,80.9141,103.8319,165.0784,195.9572,0,U,39265,999,66300,.26143467E-3,.23074E-3,-.667449E-6
APRIZESAT 7,2013-066A,2026-05-17T10:16:35.010336,14.91488589,.00347663,97.7692,91.0955,315.2286,44.6127,0,U,39416,999,67664,.85543282E-4,.807E-5,0
ZACUBE-1 (TSHEPISOSAT),2013-066B,2026-05-17T11:26:35.082816,15.00933527,.00412863,97.8123,99.6473,356.1921,3.8983,0,U,39417,999,67612,.23598271E-3,.2997E-4,0
APRIZESAT 8,2013-066K,2026-05-17T09:39:30.100608,14.87580158,.0046755,97.8206,85.3051,28.9788,331.4009,0,U,39425,999,67509,.7751001E-4,.661E-5,0
