SUOMI NPP               
1 37849U 11061A   26137.60854488  .00000031  00000+0  35801-4 0  9996
2 37849  98.7944  78.6959 0002777  66.4579 293.6889 14.19510374754105
YAOGAN-12               
1 37875U 11066B   26137.58530013  .00005654  00000+0  22111-3 0  9997
2 37875  97.1167 177.5973 0009089 345.3862  14.7113 15.26181679807377
BEIDOU-2 M4             
1 38251U 12018B   26137.51432167 -.00000055  00000+0  00000+0 0  9998
2 38251  55.6853 305.1252 0010929 280.3706  79.4822  1.86229518 95376
ARIRANG-3 (KOMPSAT-3)   
1 38338U 12025B   26137.58077534  .00000226  00000+0  54042-4 0  9991
2 38338  98.1160  95.5734 0004747 196.7079 163.3967 14.62176708746875
METOP-B                 
1 38771U 12049A   26137.56930090  .00000061  00000+0  47506-4 0  9995
2 38771  98.6524 189.6761 0003487  83.5795 276.5779 14.21423541708914
SJ-9A                   
1 38860U 12056A   26137.58236361  .00000832  00000+0  10223-3 0  9995
2 38860  97.6693 110.6467 0025621   1.8636 358.2670 14.85403455695046
COSMOS 2484 (RODNIK-S 6)
1 39059U 13001C   26137.63898090 -.00000025  00000+0 -25423-3 0  9990
2 39059  82.5031 240.8821 0027551 100.9859 259.4322 12.42937830604763
SARAL                   
1 39086U 13009A   26137.59465125  .00000040  00000+0  30722-4 0  9996
2 39086  98.5559 324.5494 0002419  43.9033 316.2343 14.32847891691227
STRAND-1                
1 39090U 13009E   26137.49185405  .00000158  00000+0  67566-4 0  9996
2 39090  98.3916 318.4832 0007930 330.2368  29.8367 14.37143622692658
BRITE-AUSTRIA           
1 39091U 13009F   26137.49154534  .00000096  00000+0  47161-4 0  9996
2 39091  98.3987 317.6884 0009651 338.5598  21.5183 14.36528845692640
GAOFEN-1                
1 39150U 13018A   26137.63545403  .00000915  00000+0  13827-3 0  9998
2 39150  97.9107 210.3217 0017268   9.6472 350.5067 14.76541165703737
NEE-01 PEGASO           
1 39151U 13018B   26137.31413167  .00001155  00000+0  11552-3 0  9995
2 39151  98.1183 280.4553 0011317 265.0166  94.9761 14.93494058706092
PROBA-V                 
1 39159U 13021A   26137.47492064  .00000029  00000+0  30597-4 0  9997
2 39159  98.3573 117.6010 0003421 208.0115 152.0881 14.23590026676744
ARIRANG-5 (KOMPSAT-5)   
1 39227U 13042A   26137.57220742  .00000727  00000+0  56276-4 0  9996
2 39227  97.6208 324.7032 0002061 211.5691 148.5412 15.04493933699259
GONETS-M 5              
1 39249U 13048A   26137.60662013  .00000174  00000+0  11834-2 0  9996
2 39249  82.4854   2.4508 0015720 281.7295  78.2021 12.42891525575082
GONETS-M 7              
1 39251U 13048C   26137.65063255  .00000110  00000+0  72579-3 0  9991
2 39251  82.4924   5.3293 0016547 282.9220  77.0012 12.42914117575041
FENGYUN 3C              
1 39260U 13052A   26137.65410308  .00000024  00000+0  32953-4 0  9998
2 39260  98.4965 112.9346 0015791 109.6318 250.6563 14.15747405654246
CASSIOPE                
1 39265U 13055A   26137.56290400  .00023074 -66745-6  26143-3 0  9994
2 39265  80.9141 103.8319 0300603 165.0784 195.9572 15.22792227663000
APRIZESAT 7             
1 39416U 13066A   26137.42818299  .00000807  00000+0  85543-4 0  9994
2 39416  97.7692  91.0955 0034766 315.2286  44.6127 14.91488589676647
ZACUBE-1 (TSHEPISOSAT)  
1 39417U 13066B   26137.47679494  .00002997  00000+0  23598-3 0  9995
2 39417  97.8123  99.6473 0041286 356.1921   3.8983 15.00933527676120
APRIZESAT 8             
1 39425U 13066K   26137.40243172  .00000661  00000+0  77510-4 0  9997
2 39425  97.8206  85.3051 0046755  28.9788 331.4009 14.87580158675092
